UNKNOWN                 
1 85217U          26089.47559054  .00005000  00000+0  13044-2 0  9995
2 85217  98.0220 181.8327 0207485 162.3698 198.4834 14.37794213643334
UNKNOWN                 
1 85237U          26092.79651278  .00003217  00000+0  65095-3 0  9999
2 85237  65.5310 283.0937 0516879 337.1689  20.7120 14.02481153623914
UNKNOWN                 
1 85238U          26092.61154056  .00000054  00000+0  80229-4 0  9996
2 85238  99.0703  23.6691 0062353 260.8734 223.6561 13.88365054626228
UNKNOWN                 
1 85246U          26092.75177048  .00002472  00000+0  88808-3 0  9992
2 85246  97.9914  90.8811 0221538 336.8642  22.2680 14.21901461638844
UNKNOWN                 
1 85373U          26092.37563924  .00003110  00000+0  21069-2 0  9998
2 85373 100.4259 148.8014 0050218 307.5223 112.9886 14.00556901627611
UNKNOWN                 
1 85423U          26080.09226852 -.00000119  00000+0  00000+0 0  9992
2 85423   0.2500  63.9100 0237500 184.1600 179.3500  1.04170165    18
UNKNOWN                 
1 85431U          26093.35914132  .00001901  00000+0  44348-3 0  9995
2 85431  29.0615  94.3871 0654717  57.2715 308.9262 13.68342064  2587
UNKNOWN                 
1 85448U          26072.61808446 -.00000384  00000+0  00000+0 0  9997
2 85448  41.4606 155.5047 0007289 313.6966 141.3444 15.68404032    03
UNKNOWN                 
1 87014U          26093.68107925  .00003342  00000+0  50826-2 0  9992
2 87014 100.4813  69.1798 0051746 333.7170 208.5610 13.52479546606040
UNKNOWN                 
1 87029U          26086.81119665  .00001124  00000+0  70759-3 0  9993
2 87029  98.7455 123.3128 0080255 315.8016  43.6758 14.04747797607758
UNKNOWN                 
1 87042U          26087.83414604  .00000966  00000+0  59516-3 0  9993
2 87042  98.6991 132.1755 0044488 154.8644 205.4704 14.07306101568889
UNKNOWN                 
1 87051U          26093.12046525  .00004479  00000+0  15699-2 0  9991
2 87051  65.7314 348.7323 0708380  90.2112 278.0060 13.46386130603579
