CCSDS_OMM_VERS = 2.0
CREATION_DATE  = 
ORIGINATOR     = 

OBJECT_NAME    = UNKNOWN
OBJECT_ID      = 
CENTER_NAME    = EARTH
REF_FRAME      = TEME
TIME_SYSTEM    = UTC
MEAN_ELEMENT_THEORY = SGP/SGP4

EPOCH          = 2026-03-30T11:24:51.022656
MEAN_MOTION    = 14.37794213
ECCENTRICITY   = .0207485
INCLINATION    = 98.0220
RA_OF_ASC_NODE = 181.8327
ARG_OF_PERICENTER = 162.3698
MEAN_ANOMALY   = 198.4834

EPHEMERIS_TYPE = 0
CLASSIFICATION_TYPE = U
NORAD_CAT_ID   = 85217
ELEMENT_SET_NO = 999
REV_AT_EPOCH   = 64333
BSTAR          = .13044E-2
MEAN_MOTION_DOT = .5E-4
MEAN_MOTION_DDOT = 0

CCSDS_OMM_VERS = 2.0
CREATION_DATE  = 
ORIGINATOR     = 

OBJECT_NAME    = UNKNOWN
OBJECT_ID      = 
CENTER_NAME    = EARTH
REF_FRAME      = TEME
TIME_SYSTEM    = UTC
MEAN_ELEMENT_THEORY = SGP/SGP4

EPOCH          = 2026-04-02T19:06:58.704192
MEAN_MOTION    = 14.02481153
ECCENTRICITY   = .0516879
INCLINATION    = 65.5310
RA_OF_ASC_NODE = 283.0937
ARG_OF_PERICENTER = 337.1689
MEAN_ANOMALY   = 20.7120

EPHEMERIS_TYPE = 0
CLASSIFICATION_TYPE = U
NORAD_CAT_ID   = 85237
ELEMENT_SET_NO = 999
REV_AT_EPOCH   = 62391
BSTAR          = .65095E-3
MEAN_MOTION_DOT = .3217E-4
MEAN_MOTION_DDOT = 0

CCSDS_OMM_VERS = 2.0
CREATION_DATE  = 
ORIGINATOR     = 

OBJECT_NAME    = UNKNOWN
OBJECT_ID      = 
CENTER_NAME    = EARTH
REF_FRAME      = TEME
TIME_SYSTEM    = UTC
MEAN_ELEMENT_THEORY = SGP/SGP4

EPOCH          = 2026-04-02T14:40:37.104384
MEAN_MOTION    = 13.88365054
ECCENTRICITY   = .0062353
INCLINATION    = 99.0703
RA_OF_ASC_NODE = 23.6691
ARG_OF_PERICENTER = 260.8734
MEAN_ANOMALY   = 223.6561

EPHEMERIS_TYPE = 0
CLASSIFICATION_TYPE = U
NORAD_CAT_ID   = 85238
ELEMENT_SET_NO = 999
REV_AT_EPOCH   = 62622
BSTAR          = .80229E-4
MEAN_MOTION_DOT = .54E-6
MEAN_MOTION_DDOT = 0

CCSDS_OMM_VERS = 2.0
CREATION_DATE  = 
ORIGINATOR     = 

OBJECT_NAME    = UNKNOWN
OBJECT_ID      = 
CENTER_NAME    = EARTH
REF_FRAME      = TEME
TIME_SYSTEM    = UTC
MEAN_ELEMENT_THEORY = SGP/SGP4

EPOCH          = 2026-04-02T18:02:32.969472
MEAN_MOTION    = 14.21901461
ECCENTRICITY   = .0221538
INCLINATION    = 97.9914
RA_OF_ASC_NODE = 90.8811
ARG_OF_PERICENTER = 336.8642
MEAN_ANOMALY   = 22.2680

EPHEMERIS_TYPE = 0
CLASSIFICATION_TYPE = U
NORAD_CAT_ID   = 85246
ELEMENT_SET_NO = 999
REV_AT_EPOCH   = 63884
BSTAR          = .88808E-3
MEAN_MOTION_DOT = .2472E-4
MEAN_MOTION_DDOT = 0

CCSDS_OMM_VERS = 2.0
CREATION_DATE  = 
ORIGINATOR     = 

OBJECT_NAME    = UNKNOWN
OBJECT_ID      = 
CENTER_NAME    = EARTH
REF_FRAME      = TEME
TIME_SYSTEM    = UTC
MEAN_ELEMENT_THEORY = SGP/SGP4

EPOCH          = 2026-04-02T09:00:55.230336
MEAN_MOTION    = 14.00556901
ECCENTRICITY   = .0050218
INCLINATION    = 100.4259
RA_OF_ASC_NODE = 148.8014
ARG_OF_PERICENTER = 307.5223
MEAN_ANOMALY   = 112.9886

EPHEMERIS_TYPE = 0
CLASSIFICATION_TYPE = U
NORAD_CAT_ID   = 85373
ELEMENT_SET_NO = 999
REV_AT_EPOCH   = 62761
BSTAR          = .21069E-2
MEAN_MOTION_DOT = .311E-4
MEAN_MOTION_DDOT = 0

CCSDS_OMM_VERS = 2.0
CREATION_DATE  = 
ORIGINATOR     = 

OBJECT_NAME    = UNKNOWN
OBJECT_ID      = 
CENTER_NAME    = EARTH
REF_FRAME      = TEME
TIME_SYSTEM    = UTC
MEAN_ELEMENT_THEORY = SGP/SGP4

EPOCH          = 2026-03-21T02:12:52.000128
MEAN_MOTION    = 1.04170165
ECCENTRICITY   = .02375
INCLINATION    = 0.2500
RA_OF_ASC_NODE = 63.9100
ARG_OF_PERICENTER = 184.1600
MEAN_ANOMALY   = 179.3500

EPHEMERIS_TYPE = 0
CLASSIFICATION_TYPE = U
NORAD_CAT_ID   = 85423
ELEMENT_SET_NO = 999
REV_AT_EPOCH   = 1
BSTAR          = 0
MEAN_MOTION_DOT = -.119E-5
MEAN_MOTION_DDOT = 0

CCSDS_OMM_VERS = 2.0
CREATION_DATE  = 
ORIGINATOR     = 

OBJECT_NAME    = UNKNOWN
OBJECT_ID      = 
CENTER_NAME    = EARTH
REF_FRAME      = TEME
TIME_SYSTEM    = UTC
MEAN_ELEMENT_THEORY = SGP/SGP4

EPOCH          = 2026-04-03T08:37:09.810048
MEAN_MOTION    = 13.68342064
ECCENTRICITY   = .0654717
INCLINATION    = 29.0615
RA_OF_ASC_NODE = 94.3871
ARG_OF_PERICENTER = 57.2715
MEAN_ANOMALY   = 308.9262

EPHEMERIS_TYPE = 0
CLASSIFICATION_TYPE = U
NORAD_CAT_ID   = 85431
ELEMENT_SET_NO = 999
REV_AT_EPOCH   = 258
BSTAR          = .44348E-3
MEAN_MOTION_DOT = .1901E-4
MEAN_MOTION_DDOT = 0

CCSDS_OMM_VERS = 2.0
CREATION_DATE  = 
ORIGINATOR     = 

OBJECT_NAME    = UNKNOWN
OBJECT_ID      = 
CENTER_NAME    = EARTH
REF_FRAME      = TEME
TIME_SYSTEM    = UTC
MEAN_ELEMENT_THEORY = SGP/SGP4

EPOCH          = 2026-03-13T14:50:02.497344
MEAN_MOTION    = 15.68404032
ECCENTRICITY   = .0007289
INCLINATION    = 41.4606
RA_OF_ASC_NODE = 155.5047
ARG_OF_PERICENTER = 313.6966
MEAN_ANOMALY   = 141.3444

EPHEMERIS_TYPE = 0
CLASSIFICATION_TYPE = U
NORAD_CAT_ID   = 85448
ELEMENT_SET_NO = 999
REV_AT_EPOCH   = 0
BSTAR          = 0
MEAN_MOTION_DOT = -.384E-5
MEAN_MOTION_DDOT = 0

CCSDS_OMM_VERS = 2.0
CREATION_DATE  = 
ORIGINATOR     = 

OBJECT_NAME    = UNKNOWN
OBJECT_ID      = 
CENTER_NAME    = EARTH
REF_FRAME      = TEME
TIME_SYSTEM    = UTC
MEAN_ELEMENT_THEORY = SGP/SGP4

EPOCH          = 2026-04-03T16:20:45.247200
MEAN_MOTION    = 13.52479546
ECCENTRICITY   = .0051746
INCLINATION    = 100.4813
RA_OF_ASC_NODE = 69.1798
ARG_OF_PERICENTER = 333.7170
MEAN_ANOMALY   = 208.5610

EPHEMERIS_TYPE = 0
CLASSIFICATION_TYPE = U
NORAD_CAT_ID   = 87014
ELEMENT_SET_NO = 999
REV_AT_EPOCH   = 60604
BSTAR          = .50826E-2
MEAN_MOTION_DOT = .3342E-4
MEAN_MOTION_DDOT = 0

CCSDS_OMM_VERS = 2.0
CREATION_DATE  = 
ORIGINATOR     = 

OBJECT_NAME    = UNKNOWN
OBJECT_ID      = 
CENTER_NAME    = EARTH
REF_FRAME      = TEME
TIME_SYSTEM    = UTC
MEAN_ELEMENT_THEORY = SGP/SGP4

EPOCH          = 2026-03-27T19:28:07.390560
MEAN_MOTION    = 14.04747797
ECCENTRICITY   = .0080255
INCLINATION    = 98.7455
RA_OF_ASC_NODE = 123.3128
ARG_OF_PERICENTER = 315.8016
MEAN_ANOMALY   = 43.6758

EPHEMERIS_TYPE = 0
CLASSIFICATION_TYPE = U
NORAD_CAT_ID   = 87029
ELEMENT_SET_NO = 999
REV_AT_EPOCH   = 60775
BSTAR          = .70759E-3
MEAN_MOTION_DOT = .1124E-4
MEAN_MOTION_DDOT = 0

CCSDS_OMM_VERS = 2.0
CREATION_DATE  = 
ORIGINATOR     = 

OBJECT_NAME    = UNKNOWN
OBJECT_ID      = 
CENTER_NAME    = EARTH
REF_FRAME      = TEME
TIME_SYSTEM    = UTC
MEAN_ELEMENT_THEORY = SGP/SGP4

EPOCH          = 2026-03-28T20:01:10.217856
MEAN_MOTION    = 14.07306101
ECCENTRICITY   = .0044488
INCLINATION    = 98.6991
RA_OF_ASC_NODE = 132.1755
ARG_OF_PERICENTER = 154.8644
MEAN_ANOMALY   = 205.4704

EPHEMERIS_TYPE = 0
CLASSIFICATION_TYPE = U
NORAD_CAT_ID   = 87042
ELEMENT_SET_NO = 999
REV_AT_EPOCH   = 56888
BSTAR          = .59516E-3
MEAN_MOTION_DOT = .966E-5
MEAN_MOTION_DDOT = 0

CCSDS_OMM_VERS = 2.0
CREATION_DATE  = 
ORIGINATOR     = 

OBJECT_NAME    = UNKNOWN
OBJECT_ID      = 
CENTER_NAME    = EARTH
REF_FRAME      = TEME
TIME_SYSTEM    = UTC
MEAN_ELEMENT_THEORY = SGP/SGP4

EPOCH          = 2026-04-03T02:53:28.197600
MEAN_MOTION    = 13.46386130
ECCENTRICITY   = .070838
INCLINATION    = 65.7314
RA_OF_ASC_NODE = 348.7323
ARG_OF_PERICENTER = 90.2112
MEAN_ANOMALY   = 278.0060

EPHEMERIS_TYPE = 0
CLASSIFICATION_TYPE = U
NORAD_CAT_ID   = 87051
ELEMENT_SET_NO = 999
REV_AT_EPOCH   = 60357
BSTAR          = .15699E-2
MEAN_MOTION_DOT = .4479E-4
MEAN_MOTION_DDOT = 0

